NORAD_CAT_ID,OBJECT_NAME,OBJECT_TYPE,EPOCH,MEAN_MOTION,ECCENTRICITY,INCLINATION,RA_OF_ASC_NODE,ARG_OF_PERICENTER,MEAN_ANOMALY,BSTAR,MEAN_MOTION_DOT,MEAN_MOTION_DDOT,TLE_LINE0,TLE_LINE1,TLE_LINE2,SEMIMAJOR_AXIS,PERIOD,APOGEE,PERIGEE,DECAYED
53006.0,STARLINK-4290,PAYLOAD,2023-02-06 12:37:47,15.08850797,0.0001346,53.218,114.1611,94.485,265.6296,6.2415e-05,7.06e-06,0.0,0 STARLINK-4290,1 53006U 22076W   23037.52624106  .00000706  00000-0  62415-4 0  9997,2 53006  53.2180 114.1611 0001346  94.4850 265.6296 15.08850797 32689,6917.847,95.437,540.644,538.781,0.0
53006.0,STARLINK-4290,PAYLOAD,2023-02-06 14:13:09,15.08860743,0.0001168,53.2176,113.8627,93.4157,266.6969,0.00012421,1.691e-05,0.0,0 STARLINK-4290,1 53006U 22076W   23037.59247222  .00001691  00000-0  12421-3 0  9999,2 53006  53.2176 113.8627 0001168  93.4157 266.6969 15.08860743 32699,6917.817,95.436,540.49,538.874,0.0
53006.0,STARLINK-4290,PAYLOAD,2023-02-06 22:10:06,15.08843311,0.0001662,53.2186,112.3755,78.7876,281.3303,2.4187e-06,-2.5e-06,0.0,0 STARLINK-4290,1 53006U 22076W   23037.92368705 -.00000250  00000-0  24187-5 0  9991,2 53006  53.2186 112.3755 0001662  78.7876 281.3303 15.08843311 33216,6917.87,95.437,540.885,538.586,0.0
53006.0,STARLINK-4290,PAYLOAD,2023-02-07 12:28:34,15.08849191,0.0001528,53.2176,109.7015,77.903,282.2134,0.00014758,2.062e-05,0.0,0 STARLINK-4290,1 53006U 22076W   23038.51983803  .00002062  00000-0  14758-3 0  9992,2 53006  53.2176 109.7015 0001528  77.9030 282.2134 15.08849191 33302,6917.852,95.437,540.774,538.66,0.0
53006.0,STARLINK-4290,PAYLOAD,2023-02-07 20:25:29,15.08849166,0.0001375,53.2163,108.2138,80.1665,279.9483,0.00010493,1.383e-05,0.0,0 STARLINK-4290,1 53006U 22076W   23038.85103690  .00001383  00000-0  10493-3 0  9994,2 53006  53.2163 108.2138 0001375  80.1665 279.9483 15.08849166 32882,6917.852,95.437,540.669,538.766,0.0
53006.0,STARLINK-4290,PAYLOAD,2023-02-08 07:33:13,15.08831737,0.0001124,53.2186,106.1333,79.9271,280.1847,-8.8536e-05,-1.696e-05,0.0,0 STARLINK-4290,1 53006U 22076W   23039.31473383 -.00001696  00000-0 -88536-4 0  9998,2 53006  53.2186 106.1333 0001124  79.9271 280.1847 15.08831737 33426,6917.906,95.438,540.548,538.993,0.0
53006.0,STARLINK-4290,PAYLOAD,2023-02-08 10:43:58,15.08841241,0.0001273,53.2162,105.5415,88.0723,272.0415,-7.8707e-05,-1.54e-05,0.0,0 STARLINK-4290,1 53006U 22076W   23039.44720789 -.00001540  00000-0 -78707-4 0  9994,2 53006  53.2162 105.5415 0001273  88.0723 272.0415 15.08841241 32973,6917.877,95.437,540.622,538.861,0.0
53006.0,STARLINK-4290,PAYLOAD,2023-02-08 13:54:43,15.08854073,0.0001168,53.2167,104.9416,97.4159,262.6965,4.0106e-05,3.51e-06,0.0,0 STARLINK-4290,1 53006U 22076W   23039.57967473  .00000351  00000-0  40106-4 0  9990,2 53006  53.2167 104.9416 0001168  97.4159 262.6965 15.08854073 33469,6917.837,95.437,540.51,538.894,0.0
53006.0,STARLINK-4290,PAYLOAD,2023-02-08 21:51:40,15.0884001,0.0001457,53.2186,103.4551,80.6067,279.509,-0.00015327,-2.726e-05,0.0,0 STARLINK-4290,1 53006U 22076W   23039.91088974 -.00002726  00000-0 -15327-3 0  9994,2 53006  53.2186 103.4551 0001457  80.6067 279.5090 15.08840010 33043,6917.88,95.438,540.753,538.737,0.0
53006.0,STARLINK-4290,PAYLOAD,2023-02-09 07:23:59,15.08836945,0.0001323,53.2158,101.6718,75.7172,284.3967,3.6554e-06,-2.3e-06,0.0,0 STARLINK-4290,1 53006U 22076W   23040.30832884 -.00000230  00000-0  36554-5 0  9990,2 53006  53.2158 101.6718 0001323  75.7172 284.3967 15.08836945 33578,6917.89,95.438,540.67,538.839,0.0
53006.0,STARLINK-4290,PAYLOAD,2023-02-09 10:34:45,15.08848389,0.0001494,53.2182,101.0763,100.9043,259.2117,-8.3107e-06,-4.2e-06,0.0,0 STARLINK-4290,1 53006U 22076W   23040.44080157 -.00000420  00000-0 -83107-5 0  9991,2 53006  53.2182 101.0763 0001494 100.9043 259.2117 15.08848389 33120,6917.855,95.437,540.753,538.686,0.0
53006.0,STARLINK-4290,PAYLOAD,2023-02-10 04:04:00,15.08831109,0.0001407,53.2181,97.8071,83.6266,276.4886,4.7088e-05,4.61e-06,0.0,0 STARLINK-4290,1 53006U 22076W   23041.16945267  .00000461  00000-0  47088-4 0  9993,2 53006  53.2181  97.8071 0001407  83.6266 276.4886 15.08831109 33239,6917.908,95.438,540.746,538.799,0.0
53006.0,STARLINK-4290,PAYLOAD,2023-02-10 10:25:32,15.08842074,0.0001343,53.2171,96.6153,115.0306,245.0826,2.4364e-05,1e-06,0.0,0 STARLINK-4290,1 53006U 22076W   23041.43440767  .00000100  00000-0  24364-4 0  9990,2 53006  53.2171  96.6153 0001343 115.0306 245.0826 15.08842074 33745,6917.874,95.437,540.668,538.81,0.0
53006.0,STARLINK-4290,PAYLOAD,2023-02-10 19:57:52,15.0883792,0.0001282,53.2168,94.833,103.05,257.0635,-2.1206e-05,-6.25e-06,0.0,0 STARLINK-4290,1 53006U 22076W   23041.83185325 -.00000625  00000-0 -21206-4 0  9996,2 53006  53.2168  94.8330 0001282 103.0500 257.0635 15.08837920 33333,6917.887,95.438,540.639,538.865,0.0
53006.0,STARLINK-4290,PAYLOAD,2023-02-11 19:48:38,15.08846743,0.000144,53.2176,90.3747,103.2195,256.8958,0.00010355,1.361e-05,0.0,0 STARLINK-4290,1 53006U 22076W   23042.82544857  .00001361  00000-0  10355-3 0  9993,2 53006  53.2176  90.3747 0001440 103.2195 256.8958 15.08846743 33959,6917.86,95.437,540.721,538.729,0.0
53006.0,STARLINK-4290,PAYLOAD,2023-02-12 10:07:08,15.08834705,0.0001422,53.2167,87.6947,93.3757,266.7398,5.4671e-05,5.82e-06,0.0,0 STARLINK-4290,1 53006U 22076W   23043.42162058  .00000582  00000-0  54671-4 0  9993,2 53006  53.2167  87.6947 0001422  93.3757 266.7398 15.08834705 34047,6917.897,95.438,540.745,538.778,0.0
53006.0,STARLINK-4290,PAYLOAD,2023-02-12 19:39:26,15.08841615,0.0001192,53.2159,85.9124,113.3108,246.8009,3.0261e-05,1.94e-06,0.0,0 STARLINK-4290,1 53006U 22076W   23043.81905625  .00000194  00000-0  30261-4 0  9999,2 53006  53.2159  85.9124 0001192 113.3108 246.8009 15.08841615 34106,6917.875,95.437,540.565,538.916,0.0
53006.0,STARLINK-4290,PAYLOAD,2023-02-14 01:51:46,15.0883475,0.0001612,53.2156,80.2605,85.8655,274.2522,0.00013273,1.825e-05,0.0,0 STARLINK-4290,1 53006U 22076W   23045.07762234  .00001825  00000-0  13273-3 0  9991,2 53006  53.2156  80.2605 0001612  85.8655 274.2522 15.08834750 34299,6917.896,95.438,540.877,538.646,0.0
53006.0,STARLINK-4290,PAYLOAD,2023-02-14 11:24:05,15.08845236,0.0001584,53.2156,78.4771,91.9846,268.1327,6.6431e-05,7.7e-06,0.0,0 STARLINK-4290,1 53006U 22076W   23045.47505825  .00000770  00000-0  66431-4 0  9999,2 53006  53.2156  78.4771 0001584  91.9846 268.1327 15.08845236 33880,6917.864,95.437,540.825,538.634,0.0
53006.0,STARLINK-4290,PAYLOAD,2023-02-14 19:21:01,15.08834028,0.0001494,53.217,76.991,84.9104,275.2058,3.1853e-05,2.19e-06,0.0,0 STARLINK-4290,1 53006U 22076W   23045.80626631  .00000219  00000-0  31853-4 0  9993,2 53006  53.2170  76.9910 0001494  84.9104 275.2058 15.08834028 33936,6917.899,95.438,540.797,538.73,0.0
53006.0,STARLINK-4290,PAYLOAD,2023-02-15 06:28:43,15.08835918,0.0001407,53.2168,74.9074,86.1825,273.9328,5.1316e-05,5.29e-06,0.0,0 STARLINK-4290,1 53006U 22076W   23046.26994578  .00000529  00000-0  51316-4 0  9992,2 53006  53.2168  74.9074 0001407  86.1825 273.9328 15.08835918 34474,6917.893,95.438,540.731,538.785,0.0
53006.0,STARLINK-4290,PAYLOAD,2023-02-15 11:14:51,15.08855834,0.0001448,53.2168,74.0177,77.0725,283.0429,0.00014682,2.05e-05,0.0,0 STARLINK-4290,1 53006U 22076W   23046.46865133  .00002050  00000-0  14682-3 0  9993,2 53006  53.2168  74.0177 0001448  77.0725 283.0429 15.08855834 34509,6917.832,95.437,540.699,538.695,0.0
53006.0,STARLINK-4290,PAYLOAD,2023-02-15 19:11:47,15.08849608,0.0001401,53.2172,72.5287,84.9534,275.1618,9.7849e-05,1.27e-05,0.0,0 STARLINK-4290,1 53006U 22076W   23046.79985429  .00001270  00000-0  97849-4 0  9990,2 53006  53.2172  72.5287 0001401  84.9534 275.1618 15.08849608 34552,6917.851,95.437,540.685,538.747,0.0
53006.0,STARLINK-4290,PAYLOAD,2023-02-16 12:40:59,15.08873639,0.0001308,53.2168,69.2591,81.2319,278.8822,0.00033068,4.984e-05,0.0,0 STARLINK-4290,1 53006U 22076W   23047.52846854  .00004984  00000-0  33068-3 0  9997,2 53006  53.2168  69.2591 0001308  81.2319 278.8822 15.08873639 34665,6917.778,95.435,540.547,538.738,0.0
53006.0,STARLINK-4290,PAYLOAD,2023-02-17 04:34:55,15.08818173,0.0001233,53.2155,66.2841,109.8603,250.2522,-8.9034e-05,-1.704e-05,0.0,0 STARLINK-4290,1 53006U 22076W   23048.19091663 -.00001704  00000-0 -89034-4 0  9995,2 53006  53.2155  66.2841 0001233 109.8603 250.2522 15.08818173 34760,6917.947,95.439,540.665,538.959,0.0
53006.0,STARLINK-4290,PAYLOAD,2023-02-17 12:31:49,15.08832923,0.0001137,53.2167,64.7942,109.9976,250.1139,-0.00010103,-1.895e-05,0.0,0 STARLINK-4290,1 53006U 22076W   23048.52210443 -.00001895  00000-0 -10103-3 0  9992,2 53006  53.2167  64.7942 0001137 109.9976 250.1139 15.08832923 34813,6917.902,95.438,540.554,538.98,0.0
53006.0,STARLINK-4290,PAYLOAD,2023-02-18 12:22:37,15.08838803,0.0001098,53.2168,60.3354,93.28,266.8318,7.9423e-06,-1.61e-06,0.0,0 STARLINK-4290,1 53006U 22076W   23049.51570679 -.00000161  00000-0  79423-5 0  9998,2 53006  53.2168  60.3354 0001098  93.2800 266.8318 15.08838803 34490,6917.884,95.438,540.509,538.989,0.0
53006.0,STARLINK-4290,PAYLOAD,2023-02-18 17:08:46,15.0884147,0.0001092,53.217,59.4434,87.6733,272.4384,-1.0864e-05,-4.61e-06,0.0,0 STARLINK-4290,1 53006U 22076W   23049.71442451 -.00000461  00000-0 -10864-4 0  9993,2 53006  53.2170  59.4434 0001092  87.6733 272.4384 15.08841470 34992,6917.876,95.437,540.496,538.985,0.0
53006.0,STARLINK-4290,PAYLOAD,2023-02-19 12:13:23,15.08865917,7.97e-05,53.2161,55.8757,92.9927,267.1156,0.00067185,0.00010428,0.0,0 STARLINK-4290,1 53006U 22076W   23050.50929820  .00010428  00000-0  67185-3 0  9991,2 53006  53.2161  55.8757 0000797  92.9927 267.1156 15.08865917 35110,6917.801,95.436,540.218,539.115,0.0
53006.0,STARLINK-4290,PAYLOAD,2023-02-20 07:18:01,15.08855926,9.71e-05,53.216,52.3079,91.4706,268.6397,0.00043641,6.667e-05,0.0,0 STARLINK-4290,1 53006U 22076W   23051.30417961  .00006667  00000-0  43641-3 0  9999,2 53006  53.2160  52.3079 0000971  91.4706 268.6397 15.08855926 35236,6917.832,95.437,540.368,539.025,0.0
